NORAD_CAT_ID,OBJECT_NAME,OBJECT_TYPE,EPOCH,MEAN_MOTION,ECCENTRICITY,INCLINATION,RA_OF_ASC_NODE,ARG_OF_PERICENTER,MEAN_ANOMALY,BSTAR,MEAN_MOTION_DOT,MEAN_MOTION_DDOT,TLE_LINE0,TLE_LINE1,TLE_LINE2,SEMIMAJOR_AXIS,PERIOD,APOGEE,PERIGEE,DECAYED
53598.0,STARLINK-4676,PAYLOAD,2023-04-28 11:15:07,15.08850264,9.14e-05,53.2156,260.6038,97.9454,262.1641,8.1181e-06,-1.59e-06,0.0,0 STARLINK-4676,1 53598U 22104L   23118.46883770 -.00000159  00000-0  81181-5 0  9997,2 53598  53.2156 260.6038 0000914  97.9454 262.1641 15.08850264 36988,6917.849,95.437,540.346,539.082,0.0
53598.0,STARLINK-4676,PAYLOAD,2023-04-29 12:41:17,15.0884711,8.28e-05,53.2157,255.8457,93.2673,266.8414,3.3735e-05,2.49e-06,0.0,0 STARLINK-4676,1 53598U 22104L   23119.52867403  .00000249  00000-0  33735-4 0  9990,2 53598  53.2157 255.8457 0000828  93.2673 266.8414 15.08847110 37140,6917.859,95.437,540.296,539.151,0.0
53598.0,STARLINK-4676,PAYLOAD,2023-04-29 19:02:49,15.08854927,7.33e-05,53.2147,254.6533,110.7413,249.3657,0.00011756,1.585e-05,0.0,0 STARLINK-4676,1 53598U 22104L   23119.79362772  .00001585  00000-0  11756-3 0  9990,2 53598  53.2147 254.6533 0000733 110.7413 249.3657 15.08854927 37186,6917.835,95.437,540.207,539.193,0.0
53598.0,STARLINK-4676,PAYLOAD,2023-04-30 14:07:27,15.08843531,9.07e-05,53.2162,251.0875,99.2386,260.8708,8.3439e-05,1.041e-05,0.0,0 STARLINK-4676,1 53598U 22104L   23120.58851265  .00001041  00000-0  83439-4 0  9994,2 53598  53.2162 251.0875 0000907  99.2386 260.8708 15.08843531 37304,6917.87,95.437,540.362,539.107,0.0
53598.0,STARLINK-4676,PAYLOAD,2023-05-01 12:22:51,15.08836522,9.83e-05,53.2162,246.923,115.4768,244.6326,-5.4463e-05,-1.154e-05,0.0,0 STARLINK-4676,1 53598U 22104L   23121.51587628 -.00001154  00000-0 -54463-4 0  9999,2 53598  53.2162 246.9230 0000983 115.4768 244.6326 15.08836522 37444,6917.891,95.438,540.436,539.076,0.0
53598.0,STARLINK-4676,PAYLOAD,2023-05-01 17:09:01,15.08838969,8.63e-05,53.2165,246.0316,106.4459,253.6628,-8.4053e-06,-4.21e-06,0.0,0 STARLINK-4676,1 53598U 22104L   23121.71459559 -.00000421  00000-0 -84053-5 0  9997,2 53598  53.2165 246.0316 0000863 106.4459 253.6628 15.08838969 38169,6917.884,95.438,540.346,539.152,0.0
53598.0,STARLINK-4676,PAYLOAD,2023-05-02 13:49:00,15.08856259,0.0001115,53.2156,242.1653,112.029,248.0821,0.00034606,5.226e-05,0.0,0 STARLINK-4676,1 53598U 22104L   23122.57570554  .00005226  00000-0  34606-3 0  9994,2 53598  53.2156 242.1653 0001115 112.0290 248.0821 15.08856259 37600,6917.831,95.437,540.467,538.924,0.0
53598.0,STARLINK-4676,PAYLOAD,2023-05-02 15:24:24,15.08854883,0.0001146,53.2158,241.868,107.3858,252.7259,0.00054815,8.45e-05,0.0,0 STARLINK-4676,1 53598U 22104L   23122.64194737  .00008450  00000-0  54815-3 0  9993,2 53598  53.2158 241.8680 0001146 107.3858 252.7259 15.08854883 38305,6917.835,95.437,540.493,538.907,0.0
53598.0,STARLINK-4676,PAYLOAD,2023-05-03 00:56:42,15.08851398,8.41e-05,53.2162,240.082,66.6312,293.4768,0.000246,3.631e-05,0.0,0 STARLINK-4676,1 53598U 22104L   23123.03938636  .00003631  00000-0  24600-3 0  9996,2 53598  53.2162 240.0820 0000841  66.6312 293.4768 15.08851398 37674,6917.846,95.437,540.292,539.129,0.0
53598.0,STARLINK-4676,PAYLOAD,2023-05-03 12:04:25,15.0882471,6.57e-05,53.2159,238.0025,69.7747,290.3315,-0.00027329,-4.632e-05,0.0,0 STARLINK-4676,1 53598U 22104L   23123.50307752 -.00004632  00000-0 -27329-3 0  9992,2 53598  53.2159 238.0025 0000657  69.7747 290.3315 15.08824710 37745,6917.927,95.439,540.247,539.338,0.0
53598.0,STARLINK-4676,PAYLOAD,2023-05-03 13:39:49,15.08826925,7.28e-05,53.2161,237.7052,68.9348,291.1721,-0.00020658,-3.573e-05,0.0,0 STARLINK-4676,1 53598U 22104L   23123.56931772 -.00003573  00000-0 -20658-3 0  9994,2 53598  53.2161 237.7052 0000728  68.9348 291.1721 15.08826925 38449,6917.92,95.438,540.289,539.282,0.0
53598.0,STARLINK-4676,PAYLOAD,2023-05-03 15:15:12,15.08829021,7.27e-05,53.216,237.4079,66.8292,293.2777,-0.00020179,-3.497e-05,0.0,0 STARLINK-4676,1 53598U 22104L   23123.63555596 -.00003497  00000-0 -20179-3 0  9991,2 53598  53.2160 237.4079 0000727  66.8292 293.2777 15.08829021 38453,6917.914,95.438,540.282,539.276,0.0
53598.0,STARLINK-4676,PAYLOAD,2023-05-04 00:47:30,15.08834848,7.9e-05,53.2162,235.624,57.1445,302.9623,0.00030033,4.495e-05,0.0,0 STARLINK-4676,1 53598U 22104L   23124.03299765  .00004495  00000-0  30033-3 0  9996,2 53598  53.2162 235.6240 0000790  57.1445 302.9623 15.08834848 37829,6917.896,95.438,540.308,539.215,0.0
53598.0,STARLINK-4676,PAYLOAD,2023-05-04 13:30:36,15.0885439,8.74e-05,53.2159,233.2451,46.7846,313.3219,0.0013219,0.00020821,0.0,0 STARLINK-4676,1 53598U 22104L   23124.56291882  .00020821  00000-0  13219-2 0  9993,2 53598  53.2159 233.2451 0000874  46.7846 313.3219 15.08854390 38591,6917.836,95.437,540.306,539.097,0.0
53598.0,STARLINK-4676,PAYLOAD,2023-05-04 16:41:22,15.08862057,8.77e-05,53.2157,232.6501,46.0579,314.0485,0.0014109,0.00022251,0.0,0 STARLINK-4676,1 53598U 22104L   23124.69539679  .00022251  00000-0  14109-2 0  9994,2 53598  53.2157 232.6501 0000877  46.0579 314.0485 15.08862057 37925,6917.813,95.436,540.285,539.071,0.0
53598.0,STARLINK-4676,PAYLOAD,2023-05-05 06:59:50,15.08849483,0.0001609,53.216,229.9746,66.4926,293.6235,0.00096067,0.00015038,0.0,0 STARLINK-4676,1 53598U 22104L   23125.29156101  .00015038  00000-0  96067-3 0  9995,2 53598  53.2160 229.9746 0001609  66.4926 293.6235 15.08849483 38019,6917.851,95.437,540.829,538.603,0.0
53598.0,STARLINK-4676,PAYLOAD,2023-05-05 14:56:46,15.08846607,8.76e-05,53.2155,228.4872,66.3359,293.7725,0.00049322,7.572e-05,0.0,0 STARLINK-4676,1 53598U 22104L   23125.62275928  .00007572  00000-0  49322-3 0  9997,2 53598  53.2155 228.4872 0000876  66.3359 293.7725 15.08846607 38066,6917.86,95.437,540.331,539.119,0.0
53598.0,STARLINK-4676,PAYLOAD,2023-05-06 06:50:38,15.08843754,0.0001274,53.2152,225.5137,60.6565,299.4555,0.00055489,8.555e-05,0.0,0 STARLINK-4676,1 53598U 22104L   23126.28516304  .00008555  00000-0  55489-3 0  9999,2 53598  53.2152 225.5137 0001274  60.6565 299.4555 15.08843754 38169,6917.869,95.437,540.615,538.853,0.0
53598.0,STARLINK-4676,PAYLOAD,2023-05-06 13:12:10,15.08850925,0.0001065,53.2153,224.3241,65.5893,294.521,0.00060278,9.321e-05,0.0,0 STARLINK-4676,1 53598U 22104L   23126.55012082  .00009321  00000-0  60278-3 0  9997,2 53598  53.2153 224.3241 0001065  65.5893 294.5210 15.08850925 38891,6917.847,95.437,540.449,538.975,0.0
53598.0,STARLINK-4676,PAYLOAD,2023-05-07 13:02:57,15.08847257,7.81e-05,53.2168,219.8581,106.3517,253.7561,0.00024931,3.683e-05,0.0,0 STARLINK-4676,1 53598U 22104L   23127.54371830  .00003683  00000-0  24931-3 0  9997,2 53598  53.2168 219.8581 0000781 106.3517 253.7561 15.08847257 38355,6917.858,95.437,540.263,539.183,0.0
53598.0,STARLINK-4676,PAYLOAD,2023-05-07 22:35:16,15.0884099,8.61e-05,53.2147,218.08,69.55,290.5585,0.00012839,1.756e-05,0.0,0 STARLINK-4676,1 53598U 22104L   23127.94116193  .00001756  00000-0  12839-3 0  9993,2 53598  53.2147 218.0800 0000861  69.5500 290.5585 15.08840990 38417,6917.877,95.437,540.338,539.147,0.0
53598.0,STARLINK-4676,PAYLOAD,2023-05-08 12:53:44,15.08841748,7.96e-05,53.2143,215.4047,79.8516,280.2565,9.9015e-05,1.289e-05,0.0,0 STARLINK-4676,1 53598U 22104L   23128.53732214  .00001289  00000-0  99015-4 0  9990,2 53598  53.2143 215.4047 0000796  79.8516 280.2565 15.08841748 39197,6917.875,95.437,540.291,539.189,0.0
53598.0,STARLINK-4676,PAYLOAD,2023-05-09 12:44:31,15.0884594,8.75e-05,53.2154,210.9455,73.0981,287.0107,0.00018846,2.713e-05,0.0,0 STARLINK-4676,1 53598U 22104L   23129.53092196  .00002713  00000-0  18846-3 0  9994,2 53598  53.2154 210.9455 0000875  73.0981 287.0107 15.08845940 39344,6917.862,95.437,540.333,539.122,0.0
53598.0,STARLINK-4676,PAYLOAD,2023-05-10 12:35:19,15.08841318,9.64e-05,53.2155,206.4847,85.2157,274.8945,8.3007e-05,1.034e-05,0.0,0 STARLINK-4676,1 53598U 22104L   23130.52452607  .00001034  00000-0  83007-4 0  9999,2 53598  53.2155 206.4847 0000964  85.2157 274.8945 15.08841318 39494,6917.876,95.437,540.408,539.074,0.0
53598.0,STARLINK-4676,PAYLOAD,2023-05-11 10:50:42,15.08847392,9.71e-05,53.2154,202.3211,83.7519,276.3584,0.00016469,2.335e-05,0.0,0 STARLINK-4676,1 53598U 22104L   23131.45188232  .00002335  00000-0  16469-3 0  9994,2 53598  53.2154 202.3211 0000971  83.7519 276.3584 15.08847392 39636,6917.858,95.437,540.395,539.051,0.0
53598.0,STARLINK-4676,PAYLOAD,2023-05-11 12:26:05,15.0884981,0.0001083,53.2159,202.023,101.0739,259.0375,0.00020244,2.936e-05,0.0,0 STARLINK-4676,1 53598U 22104L   23131.51812078  .00002936  00000-0  20244-3 0  9996,2 53598  53.2159 202.0230 0001083 101.0739 259.0375 15.08849810 38959,6917.85,95.437,540.465,538.966,0.0
53598.0,STARLINK-4676,PAYLOAD,2023-05-11 21:58:24,15.08841008,0.0001113,53.2161,200.2389,69.0919,291.0192,0.00012082,1.636e-05,0.0,0 STARLINK-4676,1 53598U 22104L   23131.91556614  .00001636  00000-0  12082-3 0  9998,2 53598  53.2161 200.2389 0001113  69.0919 291.0192 15.08841008 39016,6917.877,95.437,540.512,538.972,0.0
53598.0,STARLINK-4676,PAYLOAD,2023-05-12 09:06:07,15.08835808,9.91e-05,53.2157,198.1526,89.8111,270.2995,1.9394e-07,-2.85e-06,0.0,0 STARLINK-4676,1 53598U 22104L   23132.37924927 -.00000285  00000-0  19394-6 0  9991,2 53598  53.2157 198.1526 0000991  89.8111 270.2995 15.08835808 39084,6917.893,95.438,540.444,539.073,0.0
53598.0,STARLINK-4676,PAYLOAD,2023-05-13 10:32:16,15.08852539,0.0001045,53.2163,193.3917,104.7497,255.3611,0.00018159,2.604e-05,0.0,0 STARLINK-4676,1 53598U 22104L   23133.43908017  .00002604  00000-0  18159-3 0  9992,2 53598  53.2163 193.3917 0001045 104.7497 255.3611 15.08852539 39244,6917.842,95.437,540.43,538.984,0.0
53598.0,STARLINK-4676,PAYLOAD,2023-05-14 10:23:04,15.08835067,0.000119,53.2159,188.9358,73.6264,286.4859,7.4383e-05,8.96e-06,0.0,0 STARLINK-4676,1 53598U 22104L   23134.43269134  .00000896  00000-0  74383-4 0  9996,2 53598  53.2159 188.9358 0001190  73.6264 286.4859 15.08835067 39397,6917.895,95.438,540.584,538.937,0.0
